{"type": "FeatureCollection", "features": [ {"type": "Feature", "properties": {"norad_id": 36402, "name": "COSMOS 2460 (732)", "group": "gnss", "lat": 12.392701292689615, "lon": -33.61277319754438, "alt_km": 19129.467302361554, "timestamp": "2025-12-16T03:53:27.297143+00:00", "meta": {"OBJECT_NAME": "COSMOS 2460 (732)", "OBJECT_ID": "2010-007C", "EPOCH": "2025-12-15T05:47:00.728160", "MEAN_MOTION": 2.13106127, "ECCENTRICITY": 0.00026664, "INCLINATION": 65.5278, "RA_OF_ASC_NODE": 320.6882, "ARG_OF_PERICENTER": 275.3459, "MEAN_ANOMALY": 111.58, "EPHEMERIS_TYPE": 0, "CLASSIFICATION_TYPE": "U", "NORAD_CAT_ID": 36402, "ELEMENT_SET_NO": 999, "REV_AT_EPOCH": 12281, "BSTAR": 0, "MEAN_MOTION_DOT": -6.7e-07, "MEAN_MOTION_DDOT": 0}, "tle": {"line1": "1 36402U 10007C   25349.24098065 -.00000067  00000+0  00000+0 0  9992", "line2": "2 36402  65.5278 320.6882 0002666 275.3459 111.5800  2.13106127122817"}}, "geometry": {"type": "Point", "coordinates": [-33.61277319754438, 12.392701292689615]}}, {"type": "Feature", "properties": {"norad_id": 36585, "name": "GPS BIIF-1  (PRN 25)", "group": "gnss", "lat": 34.18061126670205, "lon": 6.7340967251444575, "alt_km": 20066.61896944627, "timestamp": "2025-12-16T03:53:27.297155+00:00", "meta": {"OBJECT_NAME": "GPS BIIF-1  (PRN 25)", "OBJECT_ID": "2010-022A", "EPOCH": "2025-12-15T05:30:38.622816", "MEAN_MOTION": 2.00553409, "ECCENTRICITY": 0.01262158, "INCLINATION": 54.2997, "RA_OF_ASC_NODE": 215.9735, "ARG_OF_PERICENTER": 65.1022, "MEAN_ANOMALY": 116.5143, "EPHEMERIS_TYPE": 0, "CLASSIFICATION_TYPE": "U", "NORAD_CAT_ID": 36585, "ELEMENT_SET_NO": 999, "REV_AT_EPOCH": 11390, "BSTAR": 0, "MEAN_MOTION_DOT": 6.3e-07, "MEAN_MOTION_DDOT": 0}, "tle": {"line1": "1 36585U 10022A   25349.22961369  .00000063  00000+0  00000+0 0  9990", "line2": "2 36585  54.2997 215.9735 0126215  65.1022 116.5143  2.00553409113903"}}, "geometry": {"type": "Point", "coordinates": [6.7340967251444575, 34.18061126670205]}}, {"type": "Feature", "properties": {"norad_id": 36828, "name": "BEIDOU-2 IGSO-1 (C06)", "group": "gnss", "lat": 54.05926493355677, "lon": -111.75823129093044, "alt_km": 35916.66971261537, "timestamp": "2025-12-16T03:53:27.297167+00:00", "meta": {"OBJECT_NAME": "BEIDOU-2 IGSO-1 (C06)", "OBJECT_ID": "2010-036A", "EPOCH": "2025-12-14T21:38:21.623424", "MEAN_MOTION": 1.00275796, "ECCENTRICITY": 0.00512569, "INCLINATION": 54.2866, "RA_OF_ASC_NODE": 164.6279, "ARG_OF_PERICENTER": 215.8888, "MEAN_ANOMALY": 135.7931, "EPHEMERIS_TYPE": 0, "CLASSIFICATION_TYPE": "U", "NORAD_CAT_ID": 36828, "ELEMENT_SET_NO": 999, "REV_AT_EPOCH": 5624, "BSTAR": 0, "MEAN_MOTION_DOT": -2.4e-07, "MEAN_MOTION_DDOT": 0}, "tle": {"line1": "1 36828U 10036A   25348.90163916 -.00000024  00000+0  00000+0 0  9999", "line2": "2 36828  54.2866 164.6279 0051256 215.8888 135.7931  1.00275796 56247"}}, "geometry": {"type": "Point", "coordinates": [-111.75823129093044, 54.05926493355677]}}, {"type": "Feature", "properties": {"norad_id": 37210, "name": "BEIDOU-2 G4 (C04)", "group": "gnss", "lat": -2.5862372443902784, "lon": -56.470646091111256, "alt_km": 35752.778230156975, "timestamp": "2025-12-16T03:53:27.297179+00:00", "meta": {"OBJECT_NAME": "BEIDOU-2 G4 (C04)", "OBJECT_ID": "2010-057A", "EPOCH": "2025-12-15T05:35:23.025696", "MEAN_MOTION": 1.00271827, "ECCENTRICITY": 0.00106552, "INCLINATION": 3.1909, "RA_OF_ASC_NODE": 69.9307, "ARG_OF_PERICENTER": 191.7955, "MEAN_ANOMALY": 66.3363, "EPHEMERIS_TYPE": 0, "CLASSIFICATION_TYPE": "U", "NORAD_CAT_ID": 37210, "ELEMENT_SET_NO": 999, "REV_AT_EPOCH": 5544, "BSTAR": 0, "MEAN_MOTION_DOT": -9.2e-07, "MEAN_MOTION_DDOT": 0}, "tle": {"line1": "1 37210U 10057A   25349.23290539 -.00000092  00000+0  00000+0 0  9992", "line2": "2 37210   3.1909  69.9307 0010655 191.7955  66.3363  1.00271827 55448"}}, "geometry": {"type": "Point", "coordinates": [-56.470646091111256, -2.5862372443902784]}}, {"type": "Feature", "properties": {"norad_id": 37256, "name": "BEIDOU-2 IGSO-2 (C07)", "group": "gnss", "lat": -16.47056818809597, "lon": -101.40408174876434, "alt_km": 35890.32815115472, "timestamp": "2025-12-16T03:53:27.297191+00:00", "meta": {"OBJECT_NAME": "BEIDOU-2 IGSO-2 (C07)", "OBJECT_ID": "2010-068A", "EPOCH": "2025-12-14T17:43:21.584928", "MEAN_MOTION": 1.00286059, "ECCENTRICITY": 0.00486596, "INCLINATION": 47.8819, "RA_OF_ASC_NODE": 274.1236, "ARG_OF_PERICENTER": 216.4437, "MEAN_ANOMALY": 326.6295, "EPHEMERIS_TYPE": 0, "CLASSIFICATION_TYPE": "U", "NORAD_CAT_ID": 37256, "ELEMENT_SET_NO": 999, "REV_AT_EPOCH": 5494, "BSTAR": 0, "MEAN_MOTION_DOT": -2.25e-06, "MEAN_MOTION_DDOT": 0}, "tle": {"line1": "1 37256U 10068A   25348.73844427 -.00000225  00000+0  00000+0 0  9997", "line2": "2 37256  47.8819 274.1236 0048659 216.4437 326.6295  1.00286059 54942"}}, "geometry": {"type": "Point", "coordinates": [-101.40408174876434, -16.47056818809597]}}, {"type": "Feature", "properties": {"norad_id": 37384, "name": "BEIDOU-2 IGSO-3 (C08)", "group": "gnss", "lat": -25.48564787015421, "lon": -123.50588950058723, "alt_km": 35651.09399786312, "timestamp": "2025-12-16T03:53:27.297204+00:00", "meta": {"OBJECT_NAME": "BEIDOU-2 IGSO-3 (C08)", "OBJECT_ID": "2011-013A", "EPOCH": "2025-12-14T15:18:38.168064", "MEAN_MOTION": 1.00270472, "ECCENTRICITY": 0.00354241, "INCLINATION": 62.1463, "RA_OF_ASC_NODE": 41.8972, "ARG_OF_PERICENTER": 187.6123, "MEAN_ANOMALY": 191.2166, "EPHEMERIS_TYPE": 0, "CLASSIFICATION_TYPE": "U", "NORAD_CAT_ID": 37384, "ELEMENT_SET_NO": 999, "REV_AT_EPOCH": 5381, "BSTAR": 0, "MEAN_MOTION_DOT": -1.94e-06, "MEAN_MOTION_DDOT": 0}, "tle": {"line1": "1 37384U 11013A   25348.63794176 -.00000194  00000+0  00000+0 0  9999", "line2": "2 37384  62.1463  41.8972 0035424 187.6123 191.2166  1.00270472 53812"}}, "geometry": {"type": "Point", "coordinates": [-123.50588950058723, -25.48564787015421]}}, {"type": "Feature", "properties": {"norad_id": 37605, "name": "GSAT-8 (GAGAN/PRN 127)", "group": "gnss", "lat": 1.4970787795750828, "lon": -161.5885532239396, "alt_km": 35773.178398049, "timestamp": "2025-12-16T03:53:27.297217+00:00", "meta": {"OBJECT_NAME": "GSAT-8 (GAGAN/PRN 127)", "OBJECT_ID": "2011-022A", "EPOCH": "2025-12-15T05:05:18.407040", "MEAN_MOTION": 1.00272506, "ECCENTRICITY": 0.00086254, "INCLINATION": 1.6561, "RA_OF_ASC_NODE": 84.1704, "ARG_OF_PERICENTER": 184.4851, "MEAN_ANOMALY": 306.8722, "EPHEMERIS_TYPE": 0, "CLASSIFICATION_TYPE": "U", "NORAD_CAT_ID": 37605, "ELEMENT_SET_NO": 999, "REV_AT_EPOCH": 5137, "BSTAR": 0, "MEAN_MOTION_DOT": 1.05e-06, "MEAN_MOTION_DDOT": 0}, "tle": {"line1": "1 37605U 11022A   25349.21201860  .00000105  00000+0  00000+0 0  9994", "line2": "2 37605   1.6561  84.1704 0008625 184.4851 306.8722  1.00272506 51375"}}, "geometry": {"type": "Point", "coordinates": [-161.5885532239396, 1.4970787795750828]}}, {"type": "Feature", "properties": {"norad_id": 37763, "name": "BEIDOU-2 IGSO-4 (C09)", "group": "gnss", "lat": 49.934040737112795, "lon": -134.76846709826373, "alt_km": 36369.70501498104, "timestamp": "2025-12-16T03:53:27.297230+00:00", "meta": {"OBJECT_NAME": "BEIDOU-2 IGSO-4 (C09)", "OBJECT_ID": "2011-038A", "EPOCH": "2025-12-15T07:50:06.120672", "MEAN_MOTION": 1.00281785, "ECCENTRICITY": 0.01493054, "INCLINATION": 54.5835, "RA_OF_ASC_NODE": 167.3229, "ARG_OF_PERICENTER": 230.222, "MEAN_ANOMALY": 258.6911, "EPHEMERIS_TYPE": 0, "CLASSIFICATION_TYPE": "U", "NORAD_CAT_ID": 37763, "ELEMENT_SET_NO": 999, "REV_AT_EPOCH": 5280, "BSTAR": 0, "MEAN_MOTION_DOT": 6.8e-07, "MEAN_MOTION_DDOT": 0}, "tle": {"line1": "1 37763U 11038A   25349.32645973  .00000068  00000+0  00000+0 0  9993", "line2": "2 37763  54.5835 167.3229 0149305 230.2220 258.6911  1.00281785 52800"}}, "geometry": {"type": "Point", "coordinates": [-134.76846709826373, 49.934040737112795]}}, {"type": "Feature", "properties": {"norad_id": 37846, "name": "GSAT0101 (GALILEO-PFM)", "group": "gnss", "lat": -17.89042311708541, "lon": 178.81164944966116, "alt_km": 23228.12596446711, "timestamp": "2025-12-16T03:53:27.297243+00:00", "meta": {"OBJECT_NAME": "GSAT0101 (GALILEO-PFM)", "OBJECT_ID": "2011-060A", "EPOCH": "2025-12-12T21:37:17.093856", "MEAN_MOTION": 1.70475751, "ECCENTRICITY": 0.00030259, "INCLINATION": 57.0527, "RA_OF_ASC_NODE": 346.8154, "ARG_OF_PERICENTER": 315.3436, "MEAN_ANOMALY": 44.6506, "EPHEMERIS_TYPE": 0, "CLASSIFICATION_TYPE": "U", "NORAD_CAT_ID": 37846, "ELEMENT_SET_NO": 999, "REV_AT_EPOCH": 8794, "BSTAR": 0, "MEAN_MOTION_DOT": -8.7e-07, "MEAN_MOTION_DDOT": 0}, "tle": {"line1": "1 37846U 11060A   25346.90089229 -.00000087  00000+0  00000+0 0  9999", "line2": "2 37846  57.0527 346.8154 0003025 315.3436  44.6506  1.70475751 87942"}}, "geometry": {"type": "Point", "coordinates": [178.81164944966116, -17.89042311708541]}}, {"type": "Feature", "properties": {"norad_id": 37847, "name": "GSAT0102 (GALILEO-FM2)", "group": "gnss", "lat": -50.51503433405187, "lon": -141.34409888702683, "alt_km": 23220.77103881269, "timestamp": "2025-12-16T03:53:27.297255+00:00", "meta": {"OBJECT_NAME": "GSAT0102 (GALILEO-FM2)", "OBJECT_ID": "2011-060B", "EPOCH": "2025-12-12T05:47:25.345248", "MEAN_MOTION": 1.70475905, "ECCENTRICITY": 0.00049802, "INCLINATION": 57.0536, "RA_OF_ASC_NODE": 346.8337, "ARG_OF_PERICENTER": 309.4177, "MEAN_ANOMALY": 51.2149, "EPHEMERIS_TYPE": 0, "CLASSIFICATION_TYPE": "U", "NORAD_CAT_ID": 37847, "ELEMENT_SET_NO": 999, "REV_AT_EPOCH": 8794, "BSTAR": 0, "MEAN_MOTION_DOT": -8.7e-07, "MEAN_MOTION_DDOT": 0}, "tle": {"line1": "1 37847U 11060B   25346.24126557 -.00000087  00000+0  00000+0 0  9993", "line2": "2 37847  57.0536 346.8337 0004980 309.4177  51.2149  1.70475905 87941"}}, "geometry": {"type": "Point", "coordinates": [-141.34409888702683, -50.51503433405187]}}]}